{"spkid": "50761150", "covariance": {"data": [["2.821057331778891E-15", "-6.819451765931421E-15", "2.716802011286031E-13", "6.073890976185315E-13", "-4.007606843094843E-14", "-9.342293551513838E-14"], ["-6.819451765931421E-15", "1.693748928375705E-14", "-6.241299388772729E-13", "-1.538505281536724E-12", "1.791488350482792E-13", "2.304117905692098E-13"], ["2.716802011286031E-13", "-6.241299388772729E-13", "4.166998908992729E-10", "-2.176629152646478E-10", "4.620547760433897E-10", "3.725591460298259E-11"], ["6.073890976185315E-13", "-1.538505281536724E-12", "-2.176629152646478E-10", "1.587229031168034E-9", "-1.538456109787867E-9", "-1.153942218607041E-10"], ["-4.007606843094843E-14", "1.791488350482792E-13", "4.620547760433897E-10", "-1.538456109787867E-9", "1.725652356087694E-9", "1.12796126851124E-10"], ["-9.342293551513838E-14", "2.304117905692098E-13", "3.725591460298259E-11", "-1.153942218607041E-10", "1.12796126851124E-10", "4.216119288557734E-11"]], "elements": [{"title": "eccentricity", "value": ".6372673937341623", "units": null, "name": "e", "sigma": 5.3113626611058e-08, "label": "e"}, {"label": "q", "units": "au", "value": "1.031893465185693", "title": "perihelion distance", "sigma": 1.3014410967753e-07, "name": "q"}, {"title": "time of perihelion passage", "value": "2457782.581347996782", "units": "TDB", "sigma": 2.04132283311404e-05, "name": "tp", "label": "tp"}, {"label": "node", "name": "om", "sigma": 3.98400430618245e-05, "units": "deg", "value": "80.45628984097311", "title": "longitude of the ascending node"}, {"label": "peri", "value": "24.35921644028716", "title": "argument of perihelion", "units": "deg", "name": "w", "sigma": 4.15409720166451e-05}, {"label": "i", "title": "inclination", "value": "12.17288953262988", "units": "deg", "sigma": 6.49316508996786e-06, "name": "i"}], "labels": ["e", "q", "tp", "node", "peri", "i"], "epoch": "2457910.5"}, "elements": [{"label": "e", "value": ".6451677337151625", "title": "eccentricity", "units": null, "sigma": "5.0716E-8", "name": "e"}, {"label": "a", "name": "a", "sigma": "8.4922E-8", "units": "au", "title": "semi-major axis", "value": "2.822696548371418"}, {"label": "q", "name": "q", "sigma": "1.2187E-7", "value": "1.001583813293019", "title": "perihelion distance", "units": "au"}, {"name": "i", "sigma": "6.4472E-6", "value": "12.1513053829283", "title": "inclination; angle with respect to x-y ecliptic plane", "units": "deg", "label": "i"}, {"units": "deg", "title": "longitude of the ascending node", "value": "80.11635148108429", "sigma": "4.0357E-5", "name": "om", "label": "node"}, {"label": "peri", "units": "deg", "title": "argument of perihelion", "value": "24.88627595566391", "name": "w", "sigma": "4.178E-5"}, {"units": "deg", "title": "mean anomaly", "value": "346.8371882186988", "sigma": "3.3399E-5", "name": "ma", "label": "M"}, {"label": "tp", "name": "tp", "sigma": ".00016355", "units": "TDB", "value": "2461263.834578649845", "title": "time of perihelion passage"}, {"sigma": "7.817E-5", "name": "per", "units": "d", "value": "1732.186761671556", "title": "sidereal orbital period", "label": "period"}, {"title": "mean motion", "value": ".207829783696419", "units": "deg/d", "name": "n", "sigma": "9.379E-9", "label": "n"}, {"sigma": "1.3971E-7", "name": "ad", "title": "aphelion distance", "value": "4.643809283449817", "units": "au", "label": "Q"}], "epoch": "2461200.5"}